OBJECT_NAME,OBJECT_ID,EPOCH,MEAN_MOTION,ECCENTRICITY,INCLINATION,RA_OF_ASC_NODE,ARG_OF_PERICENTER,MEAN_ANOMALY,EPHEMERIS_TYPE,CLASSIFICATION_TYPE,NORAD_CAT_ID,ELEMENT_SET_NO,REV_AT_EPOCH,BSTAR,MEAN_MOTION_DOT,MEAN_MOTION_DDOT
IRIDIUM 33 DEB,1997-051MH,2024-10-05T21:46:11.709408,14.47521135,0.0024429,86.3952,236.7689,102.2713,312.4364,0,U,34833,999,81441,0.0050388,0.00018644,0
IRIDIUM 33 DEB,1997-051MQ,2024-10-04T09:41:14.609184,14.64347518,0.0020596,86.3179,151.1844,258.2059,275.5851,0,U,34870,999,82525,0.0047731,0.00025367,0
IRIDIUM 33 DEB,1997-051MY,2024-10-05T22:25:22.897056,14.59440383,0.0027919,86.3359,159.7783,258.8172,112.1628,0,U,34896,999,81290,0.0038526,0.00018408,0
IRIDIUM 33 DEB,1997-051NF,2024-10-06T02:53:20.182272,14.33645953,0.0122327,86.1485,205.3414,284.045,139.7272,0,U,34926,999,80264,0.022022,0.00066947,0
IRIDIUM 33 DEB,1997-051NH,2024-10-05T11:19:31.519776,14.849535,0.0027076,86.3937,176.8121,71.4206,288.9955,0,U,34928,999,59734,0.0080424,0.00069568,0
IRIDIUM 33 DEB,1997-051NR,2024-10-05T16:38:11.927904,14.39423751,0.0020627,86.3684,241.1193,207.0412,328.3879,0,U,34985,999,80939,0.0028549,8.929e-05,0
IRIDIUM 33 DEB,1997-051NX,2024-10-05T12:42:07.873056,14.4405077,0.0011486,86.3315,197.1276,83.0229,277.2278,0,U,35051,999,80735,0.0035772,0.00012276,0
IRIDIUM 33 DEB,1997-051NY,2024-10-05T12:16:09.732864,14.37491473,0.0014016,86.3368,205.9741,67.2649,293.0028,0,U,35052,999,81049,0.0014311,4.307e-05,0
IRIDIUM 33 DEB,1997-051PF,2024-10-05T09:42:41.176800,14.43616309,0.0119856,86.2324,251.3268,214.0029,145.3452,0,U,35080,999,63356,0.014653,0.00054588,0
IRIDIUM 33 DEB,1997-051PL,2024-10-04T09:39:21.764736,14.97821869,0.0011171,86.297,146.0653,24.8284,335.3482,0,U,35296,999,1747,0.015623,0.00188512,0
IRIDIUM 33 DEB,1997-051PM,2024-10-04T16:00:27.669888,14.41668851,0.0018915,86.3825,247.4181,132.2182,228.0627,0,U,35297,999,64163,0.0037567,0.00012294,0
IRIDIUM 33 DEB,1997-051PP,2024-10-06T02:59:08.179008,14.3556462,0.0061734,86.2942,220.6814,83.8911,336.198,0,U,35299,999,80224,0.0056738,0.00016741,0
IRIDIUM 33 DEB,1997-051QA,2024-10-06T02:04:11.467776,14.46098871,0.0016887,86.3631,211.8868,102.3111,257.9983,0,U,35480,999,81070,0.0041359,0.00014823,0
IRIDIUM 33 DEB,1997-051QE,2024-10-04T12:03:07.958880,14.71168658,0.0027423,86.3766,191.3355,223.6692,136.2355,0,U,35484,999,81516,0.0088903,0.00055462,0
IRIDIUM 33 DEB,1997-051QJ,2024-10-06T01:15:57.521376,14.70499068,0.0034305,86.3309,138.4494,108.6774,251.8171,0,U,35488,999,81885,0.0055828,0.00034316,0
IRIDIUM 33 DEB,1997-051QN,2024-10-04T01:03:07.877088,14.66653512,0.0009821,86.3666,181.8386,267.5758,92.4331,0,U,35616,999,81167,0.0081111,0.00045395,0
IRIDIUM 33 DEB,1997-051QQ,2024-10-05T11:46:01.309152,14.49248553,0.0032121,86.3465,182.4796,32.8833,327.4361,0,U,35618,999,59111,0.0027957,0.00010751,0
IRIDIUM 33 DEB,1997-051QS,2024-10-05T14:09:17.146656,14.22272658,0.018202,86.3902,38.0383,218.9079,139.8896,0,U,35620,999,78258,0.028525,0.00075742,0
IRIDIUM 33 DEB,1997-051QU,2024-10-05T13:24:46.706688,14.68277669,0.0021234,86.21,110.0319,14.6894,41.2,0,U,35622,999,81080,0.011584,0.00067631,0
IRIDIUM 33 DEB,1997-051RA,2024-10-06T02:54:47.713248,14.5767074,0.0017182,86.3655,200.546,19.1544,341.0307,0,U,35628,999,80780,0.0080736,0.00037078,0
IRIDIUM 33 DEB,1997-051RD,2024-10-05T02:12:07.054848,14.45386142,0.0019882,86.3731,207.3559,120.1166,300.2542,0,U,35631,999,80928,0.0018304,6.472e-05,0
IRIDIUM 33 DEB,1997-051RE,2024-10-05T02:02:04.750944,14.65987529,0.0077386,86.411,322.413,181.9706,178.1215,0,U,35632,999,79500,0.034918,0.00205484,0
IRIDIUM 33 DEB,1997-051RJ,2024-09-30T03:06:46.080864,14.12247736,0.0172161,86.1076,214.3923,231.2942,193.5847,0,U,35680,999,78277,0.0078096,0.00016556,0
IRIDIUM 33 DEB,1997-051RX,2024-10-05T10:14:09.404736,14.62033432,0.0023249,86.3367,159.898,250.7033,109.1663,0,U,35744,999,80978,0.0048918,0.00024717,0
IRIDIUM 33 DEB,1997-051SC,2024-09-24T04:56:04.284960,15.03939897,0.0016975,86.373,185.0896,70.3811,289.9254,0,U,35749,999,79489,0.010636,0.00150018,0
IRIDIUM 33 DEB,1997-051SF,2024-10-05T23:32:41.632224,14.67432374,0.0013857,86.347,166.4278,235.2105,124.7805,0,U,35797,999,81127,0.0067622,0.00038504,0
IRIDIUM 33 DEB,1997-051SP,2024-10-06T04:12:47.928672,14.94915783,0.0054424,86.308,245.5459,115.3412,245.3468,0,U,35805,999,79331,0.044082,0.00525059,0
IRIDIUM 33 DEB,1997-051SQ,2024-10-03T02:15:04.786560,14.49829812,0.0018875,86.3508,211.3485,90.066,270.2708,0,U,35806,999,79993,0.0077989,0.00030282,0
IRIDIUM 33 DEB,1997-051ST,2024-10-01T23:12:08.114976,14.62728741,0.001621,86.3383,172.2774,330.4245,29.6048,0,U,35809,999,80391,0.0047353,0.00024247,0
IRIDIUM 33 DEB,1997-051SW,2024-10-04T15:03:29.446560,14.40045459,0.0019048,86.3742,243.5416,159.9721,200.223,0,U,35846,999,65073,0.0035702,0.00011303,0
IRIDIUM 33 DEB,1997-051SY,2024-10-06T02:28:23.978784,14.64777219,0.000702,86.4005,208.5904,292.8048,67.2423,0,U,35848,999,79907,0.0083167,0.00044615,0
IRIDIUM 33 DEB,1997-051TA,2024-10-03T11:19:23.347200,14.65118727,0.0010763,86.3604,180.1679,287.2944,72.7091,0,U,35850,999,81030,0.0054194,0.00029249,0
IRIDIUM 33 DEB,1997-051TU,2024-10-05T11:44:04.941312,14.60757834,0.0065032,86.2254,184.172,98.5521,262.3066,0,U,35911,999,80641,0.017359,0.00088265,0
IRIDIUM 33 DEB,1997-051TY,2024-10-05T11:11:29.726592,14.65681544,0.0013038,86.3546,178.6246,279.3564,80.6175,0,U,35915,999,1704,0.0066112,0.00036178,0
IRIDIUM 33 DEB,1997-051UB,2024-10-05T06:10:25.180032,14.45102326,0.0028314,86.3996,260.9165,172.6024,250.2456,0,U,35918,999,78931,0.0056721,0.00019985,0
IRIDIUM 33 DEB,1997-051UE,2024-10-05T21:03:50.363136,14.9290971,0.0049246,86.4104,330.1429,261.2211,98.3438,0,U,35921,999,59070,0.035288,0.00394694,0
IRIDIUM 33 DEB,1997-051UN,2024-10-02T23:03:43.178688,14.75864289,0.0022312,86.3494,154.6853,126.7145,233.6128,0,U,35929,999,81362,0.0074966,0.00052001,0
IRIDIUM 33 DEB,1997-051US,2024-10-03T15:03:06.280128,14.38815222,0.0016168,86.3437,221.8481,206.3609,274.9484,0,U,36011,999,79185,0.0028969,8.941e-05,0
IRIDIUM 33 DEB,1997-051UT,2024-10-06T00:07:45.006528,14.0764262,0.024593,86.4477,120.1594,186.023,173.7984,0,U,36012,999,77520,0.018328,0.00041017,0
IRIDIUM 33 DEB,1997-051VA,2024-10-05T12:33:30.799296,15.08771616,0.0013811,86.3802,183.9118,96.1792,78.9985,0,U,36019,999,80147,0.015934,0.0025954,0
IRIDIUM 33 DEB,1997-051VK,2024-10-05T21:32:07.668672,14.73669501,0.0025108,86.3321,146.7376,135.0422,225.2835,0,U,36028,999,80701,0.0065728,0.00043322,0
IRIDIUM 33 DEB,1997-051VM,2024-10-05T12:10:44.303808,14.43196006,0.0018739,86.326,196.1964,150.8814,209.3435,0,U,36080,999,41157,0.0034997,0.00011816,0
IRIDIUM 33 DEB,1997-051VQ,2024-09-28T03:31:31.814400,14.40162148,0.0024596,86.3467,223.3147,239.1485,120.7295,0,U,36083,999,79211,0.0016795,5.343e-05,0
IRIDIUM 33 DEB,1997-051VU,2024-10-03T20:48:31.277952,14.63295726,0.0035347,86.2981,137.1496,227.4275,132.3953,0,U,36390,999,59876,0.0044812,0.00023399,0
IRIDIUM 33 DEB,1997-051VZ,2024-10-04T03:56:35.158848,14.42513464,0.0011527,86.3882,237.9613,117.8721,242.3649,0,U,36483,999,58872,0.0036371,0.00012094,0
IRIDIUM 33 DEB,1997-051WD,2024-10-04T22:02:14.675424,14.54605886,0.0093009,86.3535,340.875,237.5605,121.6583,0,U,36487,999,63302,0.025662,0.00117898,0
IRIDIUM 33 DEB,1997-051WG,2024-10-05T05:22:28.667424,14.62229634,0.0007191,86.377,203.8607,80.9828,279.2196,0,U,36490,999,80114,0.0083072,0.00042106,0
IRIDIUM 33 DEB,1997-051WK,2024-10-04T12:43:30.072288,14.5611844,0.0016344,86.3657,203.2453,36.1727,324.0583,0,U,36493,999,80768,0.006598,0.00029267,0
IRIDIUM 33 DEB,1997-051WV,2024-09-17T13:54:01.756800,14.95873446,0.0049631,86.3726,10.772,215.3622,144.4314,0,U,36566,999,78275,0.054626,0.00666972,0
IRIDIUM 33 DEB,1997-051XH,2024-10-02T03:34:19.709472,14.44764383,0.0024467,86.3528,232.3824,203.0222,156.9885,0,U,37548,999,59211,0.0047682,0.00016657,0
IRIDIUM 33 DEB,1997-051XK,2024-10-04T02:00:51.131232,14.57326939,0.0005521,86.3841,215.0454,101.3906,258.7923,0,U,37550,999,79978,0.0075395,0.00034296,0
IRIDIUM 33 DEB,1997-051XX,2024-10-05T15:52:46.341408,14.49365797,0.0030175,86.3782,231.3745,117.2596,56.091,0,U,37562,999,80037,0.0061124,0.00023566,0
IRIDIUM 33 DEB,1997-051YA,2024-10-03T01:18:04.181184,14.4801373,0.00131,86.3602,198.817,92.1766,268.0938,0,U,37565,999,59523,0.0040936,0.00015258,0
IRIDIUM 33 DEB,1997-051YD,2024-10-03T22:52:33.074112,14.30139047,0.0142999,86.337,352.4263,92.0176,269.74,0,U,38017,999,55148,0.027189,0.00079401,0
IRIDIUM 33 DEB,1997-051YG,2024-10-05T07:11:21.158880,14.8090617,0.00788,86.2678,287.1956,148.3852,212.2139,0,U,38020,999,77954,0.036808,0.00312477,0
IRIDIUM 33 DEB,1997-051YJ,2024-10-02T12:46:12.184608,14.36635658,0.0054369,86.279,206.6224,41.2623,319.2662,0,U,38022,999,80734,0.006742,0.00020234,0
IRIDIUM 33 DEB,1997-051YQ,2024-10-05T11:27:49.289184,14.43964036,0.0030634,86.3343,188.2317,117.4902,242.9419,0,U,38028,999,59237,0.0015188,5.235e-05,0
IRIDIUM 33 DEB,1997-051ZB,2024-09-14T10:16:51.466080,14.86785336,0.0003598,86.3051,151.2729,100.3132,259.8498,0,U,38227,999,59179,0.017705,0.0016126,0
IRIDIUM 33 DEB,1997-051ZC,2024-10-06T04:24:44.156160,14.2586475,0.0066649,86.2945,232.0226,141.2471,283.1062,0,U,38228,999,78983,0.0021225,5.188e-05,0
IRIDIUM 33 DEB,1997-051ZD,2024-09-30T01:46:00.924384,14.18531266,0.0173932,86.3708,43.9998,338.7518,20.6503,0,U,38229,999,75456,0.0093177,0.00022455,0
IRIDIUM 33 DEB,1997-051ZL,2024-10-05T22:55:57.617472,14.74303831,0.0036287,86.2432,165.5531,225.6079,134.2166,0,U,38236,999,72204,0.0098468,0.00066426,0
IRIDIUM 33 DEB,1997-051ZR,2024-10-05T10:40:27.727104,14.50199862,0.000631,86.3314,181.0477,68.0813,292.1061,0,U,38241,999,53909,0.0041567,0.00016208,0
IRIDIUM 33 DEB,1997-051AAB,2024-10-06T00:49:49.893600,14.4705903,0.003342,86.3327,198.0492,89.8653,270.6379,0,U,38474,999,80121,0.0040384,0.00014843,0
IRIDIUM 33 DEB,1997-051AAE,2024-10-03T05:46:35.049216,13.52248897,0.0434819,86.4029,265.4729,51.1419,312.7697,0,U,38477,999,70769,0.015868,0.00019039,0
